[{"OBJECT_NAME":"ONEWEB-0205","OBJECT_ID":"2021-031S","EPOCH":"2026-05-29T19:02:27.714912","MEAN_MOTION":13.14503926,"ECCENTRICITY":0.0001805,"INCLINATION":87.8954,"RA_OF_ASC_NODE":293.3629,"ARG_OF_PERICENTER":107.4378,"MEAN_ANOMALY":252.6949,"EPHEMERIS_TYPE":0,"CLASSIFICATION_TYPE":"U","NORAD_CAT_ID":48226,"ELEMENT_SET_NO":999,"REV_AT_EPOCH":24585,"BSTAR":-5.6999e-05,"MEAN_MOTION_DOT":-8e-08,"MEAN_MOTION_DDOT":0.0},{"OBJECT_NAME":"ONEWEB-0206","OBJECT_ID":"2021-031T","EPOCH":"2026-05-29T20:13:15.277152","MEAN_MOTION":13.14503146,"ECCENTRICITY":0.0001858,"INCLINATION":87.8948,"RA_OF_ASC_NODE":293.3553,"ARG_OF_PERICENTER":93.4474,"MEAN_ANOMALY":266.6868,"EPHEMERIS_TYPE":0,"CLASSIFICATION_TYPE":"U","NORAD_CAT_ID":48227,"ELEMENT_SET_NO":999,"REV_AT_EPOCH":24581,"BSTAR":0.00033809,"MEAN_MOTION_DOT":1.38e-06,"MEAN_MOTION_DDOT":0.0},{"OBJECT_NAME":"ONEWEB-0182","OBJECT_ID":"2021-031U","EPOCH":"2026-05-29T18:16:46.743168","MEAN_MOTION":13.1450169,"ECCENTRICITY":0.0002064,"INCLINATION":87.8946,"RA_OF_ASC_NODE":293.3799,"ARG_OF_PERICENTER":98.5687,"MEAN_ANOMALY":261.5676,"EPHEMERIS_TYPE":0,"CLASSIFICATION_TYPE":"U","NORAD_CAT_ID":48228,"ELEMENT_SET_NO":999,"REV_AT_EPOCH":24601,"BSTAR":0.00034294,"MEAN_MOTION_DOT":1.4e-06,"MEAN_MOTION_DDOT":0.0},{"OBJECT_NAME":"ONEWEB-0186","OBJECT_ID":"2021-031V","EPOCH":"2026-05-29T18:32:45.695904","MEAN_MOTION":13.14500605,"ECCENTRICITY":0.0001801,"INCLINATION":87.8952,"RA_OF_ASC_NODE":293.3665,"ARG_OF_PERICENTER":100.816,"MEAN_ANOMALY":259.3173,"EPHEMERIS_TYPE":0,"CLASSIFICATION_TYPE":"U","NORAD_CAT_ID":48229,"ELEMENT_SET_NO":999,"REV_AT_EPOCH":24596,"BSTAR":0.00028305,"MEAN_MOTION_DOT":1.18e-06,"MEAN_MOTION_DDOT":0.0},{"OBJECT_NAME":"ONEWEB-0181","OBJECT_ID":"2021-031W","EPOCH":"2026-05-29T19:50:24.858240","MEAN_MOTION":13.14502496,"ECCENTRICITY":0.0001743,"INCLINATION":87.8935,"RA_OF_ASC_NODE":293.3884,"ARG_OF_PERICENTER":104.8464,"MEAN_ANOMALY":255.2859,"EPHEMERIS_TYPE":0,"CLASSIFICATION_TYPE":"U","NORAD_CAT_ID":48230,"ELEMENT_SET_NO":999,"REV_AT_EPOCH":24582,"BSTAR":-0.00011633,"MEAN_MOTION_DOT":-3e-07,"MEAN_MOTION_DDOT":0.0},{"OBJECT_NAME":"ONEWEB-0188","OBJECT_ID":"2021-031X","EPOCH":"2026-05-29T20:45:13.595616","MEAN_MOTION":13.14503216,"ECCENTRICITY":0.000184,"INCLINATION":87.8939,"RA_OF_ASC_NODE":293.38,"ARG_OF_PERICENTER":99.8509,"MEAN_ANOMALY":260.2828,"EPHEMERIS_TYPE":0,"CLASSIFICATION_TYPE":"U","NORAD_CAT_ID":48231,"ELEMENT_SET_NO":999,"REV_AT_EPOCH":24573,"BSTAR":0.0001777,"MEAN_MOTION_DOT":7.9e-07,"MEAN_MOTION_DDOT":0.0},{"OBJECT_NAME":"ONEWEB-0220","OBJECT_ID":"2021-031Y","EPOCH":"2026-05-29T19:52:41.608704","MEAN_MOTION":13.14502184,"ECCENTRICITY":0.0001945,"INCLINATION":87.8954,"RA_OF_ASC_NODE":293.3574,"ARG_OF_PERICENTER":105.0298,"MEAN_ANOMALY":255.1047,"EPHEMERIS_TYPE":0,"CLASSIFICATION_TYPE":"U","NORAD_CAT_ID":48232,"ELEMENT_SET_NO":999,"REV_AT_EPOCH":24599,"BSTAR":-6.7481e-05,"MEAN_MOTION_DOT":-1.2e-07,"MEAN_MOTION_DDOT":0.0},{"OBJECT_NAME":"ONEWEB-0165","OBJECT_ID":"2021-031Z","EPOCH":"2026-05-29T11:25:45.014016","MEAN_MOTION":13.14502051,"ECCENTRICITY":0.0001563,"INCLINATION":87.8948,"RA_OF_ASC_NODE":293.4417,"ARG_OF_PERICENTER":107.3445,"MEAN_ANOMALY":252.7855,"EPHEMERIS_TYPE":0,"CLASSIFICATION_TYPE":"U","NORAD_CAT_ID":48233,"ELEMENT_SET_NO":999,"REV_AT_EPOCH":24590,"BSTAR":0.00039985,"MEAN_MOTION_DOT":1.61e-06,"MEAN_MOTION_DDOT":0.0},{"OBJECT_NAME":"ONEWEB-0199","OBJECT_ID":"2021-031AA","EPOCH":"2026-05-29T20:10:57.852768","MEAN_MOTION":13.14502446,"ECCENTRICITY":0.0001898,"INCLINATION":87.8954,"RA_OF_ASC_NODE":293.3537,"ARG_OF_PERICENTER":93.3239,"MEAN_ANOMALY":266.8108,"EPHEMERIS_TYPE":0,"CLASSIFICATION_TYPE":"U","NORAD_CAT_ID":48234,"ELEMENT_SET_NO":999,"REV_AT_EPOCH":24585,"BSTAR":0.00054365,"MEAN_MOTION_DOT":2.14e-06,"MEAN_MOTION_DDOT":0.0},{"OBJECT_NAME":"ONEWEB-0203","OBJECT_ID":"2021-031AB","EPOCH":"2026-05-29T19:57:15.230592","MEAN_MOTION":13.1450182,"ECCENTRICITY":0.000168,"INCLINATION":87.8951,"RA_OF_ASC_NODE":293.3592,"ARG_OF_PERICENTER":96.0827,"MEAN_ANOMALY":264.0494,"EPHEMERIS_TYPE":0,"CLASSIFICATION_TYPE":"U","NORAD_CAT_ID":48235,"ELEMENT_SET_NO":999,"REV_AT_EPOCH":24586,"BSTAR":0.00015721,"MEAN_MOTION_DOT":7.1e-07,"MEAN_MOTION_DDOT":0.0},{"OBJECT_NAME":"ONEWEB-0197","OBJECT_ID":"2021-031AC","EPOCH":"2026-05-29T19:20:32.050464","MEAN_MOTION":13.14502753,"ECCENTRICITY":0.000211,"INCLINATION":87.8943,"RA_OF_ASC_NODE":293.3521,"ARG_OF_PERICENTER":101.683,"MEAN_ANOMALY":258.4537,"EPHEMERIS_TYPE":0,"CLASSIFICATION_TYPE":"U","NORAD_CAT_ID":48236,"ELEMENT_SET_NO":999,"REV_AT_EPOCH":24577,"BSTAR":-0.00050883,"MEAN_MOTION_DOT":-1.76e-06,"MEAN_MOTION_DDOT":0.0},{"OBJECT_NAME":"ONEWEB-0194","OBJECT_ID":"2021-031AD","EPOCH":"2026-05-29T18:51:01.683360","MEAN_MOTION":13.14501322,"ECCENTRICITY":0.0001752,"INCLINATION":87.8948,"RA_OF_ASC_NODE":293.3772,"ARG_OF_PERICENTER":92.4934,"MEAN_ANOMALY":267.6397,"EPHEMERIS_TYPE":0,"CLASSIFICATION_TYPE":"U","NORAD_CAT_ID":48237,"ELEMENT_SET_NO":999,"REV_AT_EPOCH":24594,"BSTAR":0.00026196000000000005,"MEAN_MOTION_DOT":1.1e-06,"MEAN_MOTION_DDOT":0.0},{"OBJECT_NAME":"ONEWEB-0193","OBJECT_ID":"2021-031AE","EPOCH":"2026-05-29T21:03:28.311264","MEAN_MOTION":13.14501681,"ECCENTRICITY":0.0001768,"INCLINATION":87.8947,"RA_OF_ASC_NODE":293.3497,"ARG_OF_PERICENTER":84.3552,"MEAN_ANOMALY":275.7779,"EPHEMERIS_TYPE":0,"CLASSIFICATION_TYPE":"U","NORAD_CAT_ID":48238,"ELEMENT_SET_NO":999,"REV_AT_EPOCH":24590,"BSTAR":-0.00040666000000000004,"MEAN_MOTION_DOT":-1.38e-06,"MEAN_MOTION_DDOT":0.0},{"OBJECT_NAME":"ONEWEB-0191","OBJECT_ID":"2021-031AF","EPOCH":"2026-05-29T19:29:51.213984","MEAN_MOTION":13.14502009,"ECCENTRICITY":0.0002026,"INCLINATION":87.8951,"RA_OF_ASC_NODE":293.36,"ARG_OF_PERICENTER":98.4918,"MEAN_ANOMALY":261.6441,"EPHEMERIS_TYPE":0,"CLASSIFICATION_TYPE":"U","NORAD_CAT_ID":48239,"ELEMENT_SET_NO":999,"REV_AT_EPOCH":24575,"BSTAR":-0.00062393,"MEAN_MOTION_DOT":-2.19e-06,"MEAN_MOTION_DDOT":0.0},{"OBJECT_NAME":"ONEWEB-0195","OBJECT_ID":"2021-031AG","EPOCH":"2026-05-29T20:46:19.951680","MEAN_MOTION":13.14504541,"ECCENTRICITY":0.0001563,"INCLINATION":87.8954,"RA_OF_ASC_NODE":293.3508,"ARG_OF_PERICENTER":109.2303,"MEAN_ANOMALY":250.8996,"EPHEMERIS_TYPE":0,"CLASSIFICATION_TYPE":"U","NORAD_CAT_ID":48240,"ELEMENT_SET_NO":999,"REV_AT_EPOCH":24574,"BSTAR":0.0001184,"MEAN_MOTION_DOT":5.7e-07,"MEAN_MOTION_DDOT":0.0},{"OBJECT_NAME":"ONEWEB-0201","OBJECT_ID":"2021-031AH","EPOCH":"2026-05-29T11:21:23.270400","MEAN_MOTION":13.14503851,"ECCENTRICITY":0.0002107,"INCLINATION":87.8945,"RA_OF_ASC_NODE":293.4459,"ARG_OF_PERICENTER":104.0695,"MEAN_ANOMALY":256.0669,"EPHEMERIS_TYPE":0,"CLASSIFICATION_TYPE":"U","NORAD_CAT_ID":48241,"ELEMENT_SET_NO":999,"REV_AT_EPOCH":24592,"BSTAR":0.00047630000000000003,"MEAN_MOTION_DOT":1.89e-06,"MEAN_MOTION_DDOT":0.0}]