ONEWEB-0205             
1 48226U 21031S   26149.79337633 -.00000008  00000+0 -56999-4 0  9993
2 48226  87.8954 293.3629 0001805 107.4378 252.6949 13.14503926245858
ONEWEB-0206             
1 48227U 21031T   26149.84253793  .00000138  00000+0  33809-3 0  9990
2 48227  87.8948 293.3553 0001858  93.4474 266.6868 13.14503146245812
ONEWEB-0182             
1 48228U 21031U   26149.76165212  .00000140  00000+0  34294-3 0  9992
2 48228  87.8946 293.3799 0002064  98.5687 261.5676 13.14501690246011
ONEWEB-0186             
1 48229U 21031V   26149.77275111  .00000118  00000+0  28305-3 0  9995
2 48229  87.8952 293.3665 0001801 100.8160 259.3173 13.14500605245967
ONEWEB-0181             
1 48230U 21031W   26149.82667660 -.00000030  00000+0 -11633-3 0  9998
2 48230  87.8935 293.3884 0001743 104.8464 255.2859 13.14502496245820
ONEWEB-0188             
1 48231U 21031X   26149.86474069  .00000079  00000+0  17770-3 0  9991
2 48231  87.8939 293.3800 0001840  99.8509 260.2828 13.14503216245737
ONEWEB-0220             
1 48232U 21031Y   26149.82825936 -.00000012  00000+0 -67481-4 0  9995
2 48232  87.8954 293.3574 0001945 105.0298 255.1047 13.14502184245991
ONEWEB-0165             
1 48233U 21031Z   26149.47621544  .00000161  00000+0  39985-3 0  9996
2 48233  87.8948 293.4417 0001563 107.3445 252.7855 13.14502051245901
ONEWEB-0199             
1 48234U 21031AA  26149.84094737  .00000214  00000+0  54365-3 0  9994
2 48234  87.8954 293.3537 0001898  93.3239 266.8108 13.14502446245856
ONEWEB-0203             
1 48235U 21031AB  26149.83142628  .00000071  00000+0  15721-3 0  9991
2 48235  87.8951 293.3592 0001680  96.0827 264.0494 13.14501820245861
ONEWEB-0197             
1 48236U 21031AC  26149.80592651 -.00000176  00000+0 -50883-3 0  9990
2 48236  87.8943 293.3521 0002110 101.6830 258.4537 13.14502753245772
ONEWEB-0194             
1 48237U 21031AD  26149.78543615  .00000110  00000+0  26196-3 0  9990
2 48237  87.8948 293.3772 0001752  92.4934 267.6397 13.14501322245945
ONEWEB-0193             
1 48238U 21031AE  26149.87741101 -.00000138  00000+0 -40666-3 0  9991
2 48238  87.8947 293.3497 0001768  84.3552 275.7779 13.14501681245900
ONEWEB-0191             
1 48239U 21031AF  26149.81239831 -.00000219  00000+0 -62393-3 0  9999
2 48239  87.8951 293.3600 0002026  98.4918 261.6441 13.14502009245750
ONEWEB-0195             
1 48240U 21031AG  26149.86550870  .00000057  00000+0  11840-3 0  9994
2 48240  87.8954 293.3508 0001563 109.2303 250.8996 13.14504541245743
ONEWEB-0201             
1 48241U 21031AH  26149.47318600  .00000189  00000+0  47630-3 0  9997
2 48241  87.8945 293.4459 0002107 104.0695 256.0669 13.14503851245920
